{"type": "FeatureCollection", "features": [ {"type": "Feature", "properties": {"norad_id": 66504, "name": "STARLINK-35916", "group": "last-30-days", "lat": 30.03522351727183, "lon": 165.72434840331996, "alt_km": 440.0170102231514, "timestamp": "2025-12-12T14:39:16.770959+00:00", "meta": {"OBJECT_NAME": "STARLINK-35916", "OBJECT_ID": "2025-263V", "EPOCH": "2025-12-11T18:13:29.701056", "MEAN_MOTION": 15.40730519, "ECCENTRICITY": 0.00019694, "INCLINATION": 43.0002, "RA_OF_ASC_NODE": 132.2825, "ARG_OF_PERICENTER": 261.4759, "MEAN_ANOMALY": 98.5874, "EPHEMERIS_TYPE": 0, "CLASSIFICATION_TYPE": "U", "NORAD_CAT_ID": 66504, "ELEMENT_SET_NO": 999, "REV_AT_EPOCH": 539, "BSTAR": 0.0008844206, "MEAN_MOTION_DOT": 0.00036858, "MEAN_MOTION_DDOT": 0}, "tle": {"line1": "1 66504U 25263V   25345.75937154  .00036858  00000+0  88442-3 0  9997", "line2": "2 66504  43.0002 132.2825 0001969 261.4759  98.5874 15.40730519  5397"}}, "geometry": {"type": "Point", "coordinates": [165.72434840331996, 30.03522351727183]}}, {"type": "Feature", "properties": {"norad_id": 66505, "name": "STARLINK-34766", "group": "last-30-days", "lat": -30.025136590734807, "lon": 87.51370519292456, "alt_km": 416.87648427815566, "timestamp": "2025-12-12T14:39:16.770968+00:00", "meta": {"OBJECT_NAME": "STARLINK-34766", "OBJECT_ID": "2025-263W", "EPOCH": "2025-12-12T00:00:04.999968", "MEAN_MOTION": 15.50506374, "ECCENTRICITY": 0.00014252, "INCLINATION": 43.0004, "RA_OF_ASC_NODE": 129.416, "ARG_OF_PERICENTER": 277.2508, "MEAN_ANOMALY": 223.4019, "EPHEMERIS_TYPE": 0, "CLASSIFICATION_TYPE": "U", "NORAD_CAT_ID": 66505, "ELEMENT_SET_NO": 999, "REV_AT_EPOCH": 551, "BSTAR": 0.0012404313, "MEAN_MOTION_DOT": 0.0007292, "MEAN_MOTION_DDOT": 0}, "tle": {"line1": "1 66505U 25263W   25346.00005787  .00072920  00000+0  12404-2 0  9999", "line2": "2 66505  43.0004 129.4160 0001425 277.2508 223.4019 15.50506374  5519"}}, "geometry": {"type": "Point", "coordinates": [87.51370519292456, -30.025136590734807]}}, {"type": "Feature", "properties": {"norad_id": 66506, "name": "STARLINK-34765", "group": "last-30-days", "lat": -28.978953994268448, "lon": 89.37527575579807, "alt_km": 416.6382951926744, "timestamp": "2025-12-12T14:39:16.770978+00:00", "meta": {"OBJECT_NAME": "STARLINK-34765", "OBJECT_ID": "2025-263X", "EPOCH": "2025-12-12T00:00:04.999968", "MEAN_MOTION": 15.50502556, "ECCENTRICITY": 0.00016454, "INCLINATION": 43.0003, "RA_OF_ASC_NODE": 129.412, "ARG_OF_PERICENTER": 276.5196, "MEAN_ANOMALY": 226.0412, "EPHEMERIS_TYPE": 0, "CLASSIFICATION_TYPE": "U", "NORAD_CAT_ID": 66506, "ELEMENT_SET_NO": 999, "REV_AT_EPOCH": 551, "BSTAR": 0.0016455966, "MEAN_MOTION_DOT": 0.00097139, "MEAN_MOTION_DDOT": 0}, "tle": {"line1": "1 66506U 25263X   25346.00005787  .00097139  00000+0  16456-2 0  9990", "line2": "2 66506  43.0003 129.4120 0001645 276.5196 226.0412 15.50502556  5518"}}, "geometry": {"type": "Point", "coordinates": [89.37527575579807, -28.978953994268448]}}, {"type": "Feature", "properties": {"norad_id": 66507, "name": "STARLINK-34767", "group": "last-30-days", "lat": -37.690205945346264, "lon": 69.87678641242483, "alt_km": 439.04574440980196, "timestamp": "2025-12-12T14:39:16.770989+00:00", "meta": {"OBJECT_NAME": "STARLINK-34767", "OBJECT_ID": "2025-263Y", "EPOCH": "2025-12-12T06:00:00.999648", "MEAN_MOTION": 15.44726368, "ECCENTRICITY": 0.0001469, "INCLINATION": 43.0005, "RA_OF_ASC_NODE": 127.972, "ARG_OF_PERICENTER": 272.5299, "MEAN_ANOMALY": 177.1256, "EPHEMERIS_TYPE": 0, "CLASSIFICATION_TYPE": "U", "NORAD_CAT_ID": 66507, "ELEMENT_SET_NO": 999, "REV_AT_EPOCH": 555, "BSTAR": -0.047961618, "MEAN_MOTION_DOT": -0.02040741, "MEAN_MOTION_DDOT": 0}, "tle": {"line1": "1 66507U 25263Y   25346.25001157 -.02040741  00000+0 -47962-1 0  9991", "line2": "2 66507  43.0005 127.9720 0001469 272.5299 177.1256 15.44726368  5552"}}, "geometry": {"type": "Point", "coordinates": [69.87678641242483, -37.690205945346264]}}, {"type": "Feature", "properties": {"norad_id": 66508, "name": "STARLINK-35608", "group": "last-30-days", "lat": -24.165890544283734, "lon": 97.03304755850576, "alt_km": 420.82703472151115, "timestamp": "2025-12-12T14:39:16.770999+00:00", "meta": {"OBJECT_NAME": "STARLINK-35608", "OBJECT_ID": "2025-263Z", "EPOCH": "2025-12-12T00:00:04.999968", "MEAN_MOTION": 15.50968309, "ECCENTRICITY": 8.258e-05, "INCLINATION": 42.9998, "RA_OF_ASC_NODE": 129.3871, "ARG_OF_PERICENTER": 275.7542, "MEAN_ANOMALY": 236.3097, "EPHEMERIS_TYPE": 0, "CLASSIFICATION_TYPE": "U", "NORAD_CAT_ID": 66508, "ELEMENT_SET_NO": 999, "REV_AT_EPOCH": 551, "BSTAR": -0.025649805, "MEAN_MOTION_DOT": -0.01371197, "MEAN_MOTION_DDOT": 0}, "tle": {"line1": "1 66508U 25263Z   25346.00005787 -.01371197  00000+0 -25650-1 0  9999", "line2": "2 66508  42.9998 129.3871 0000825 275.7542 236.3097 15.50968309  5513"}}, "geometry": {"type": "Point", "coordinates": [97.03304755850576, -24.165890544283734]}}, {"type": "Feature", "properties": {"norad_id": 66509, "name": "STARLINK-35598", "group": "last-30-days", "lat": -18.711438787714005, "lon": 104.48070502945923, "alt_km": 416.0865137674991, "timestamp": "2025-12-12T14:39:16.771008+00:00", "meta": {"OBJECT_NAME": "STARLINK-35598", "OBJECT_ID": "2025-263AA", "EPOCH": "2025-12-12T00:00:04.999968", "MEAN_MOTION": 15.50512553, "ECCENTRICITY": 0.00016208, "INCLINATION": 43.0001, "RA_OF_ASC_NODE": 129.3664, "ARG_OF_PERICENTER": 280.0476, "MEAN_ANOMALY": 239.7558, "EPHEMERIS_TYPE": 0, "CLASSIFICATION_TYPE": "U", "NORAD_CAT_ID": 66509, "ELEMENT_SET_NO": 999, "REV_AT_EPOCH": 551, "BSTAR": 0.0011998415, "MEAN_MOTION_DOT": 0.00070517, "MEAN_MOTION_DDOT": 0}, "tle": {"line1": "1 66509U 25263AA  25346.00005787  .00070517  00000+0  11998-2 0  9990", "line2": "2 66509  43.0001 129.3664 0001620 280.0476 239.7558 15.50512553  5515"}}, "geometry": {"type": "Point", "coordinates": [104.48070502945923, -18.711438787714005]}}, {"type": "Feature", "properties": {"norad_id": 66510, "name": "STARLINK-35600", "group": "last-30-days", "lat": -22.296990471268682, "lon": 99.7014468130323, "alt_km": 416.38277533448036, "timestamp": "2025-12-12T14:39:16.771018+00:00", "meta": {"OBJECT_NAME": "STARLINK-35600", "OBJECT_ID": "2025-263AB", "EPOCH": "2025-12-12T00:00:04.999968", "MEAN_MOTION": 15.50514319, "ECCENTRICITY": 0.00016313, "INCLINATION": 43.0002, "RA_OF_ASC_NODE": 129.3809, "ARG_OF_PERICENTER": 275.1009, "MEAN_ANOMALY": 238.9544, "EPHEMERIS_TYPE": 0, "CLASSIFICATION_TYPE": "U", "NORAD_CAT_ID": 66510, "ELEMENT_SET_NO": 999, "REV_AT_EPOCH": 551, "BSTAR": 0.0011373706, "MEAN_MOTION_DOT": 0.000668, "MEAN_MOTION_DDOT": 0}, "tle": {"line1": "1 66510U 25263AB  25346.00005787  .00066800  00000+0  11374-2 0  9990", "line2": "2 66510  43.0002 129.3809 0001631 275.1009 238.9544 15.50514319  5516"}}, "geometry": {"type": "Point", "coordinates": [99.7014468130323, -22.296990471268682]}}, {"type": "Feature", "properties": {"norad_id": 66511, "name": "STARLINK-35444", "group": "last-30-days", "lat": -19.923360798416457, "lon": 102.90992023142182, "alt_km": 416.36875653934476, "timestamp": "2025-12-12T14:39:16.771027+00:00", "meta": {"OBJECT_NAME": "STARLINK-35444", "OBJECT_ID": "2025-263AC", "EPOCH": "2025-12-12T00:00:04.999968", "MEAN_MOTION": 15.50508056, "ECCENTRICITY": 0.00013512, "INCLINATION": 43.0002, "RA_OF_ASC_NODE": 129.3718, "ARG_OF_PERICENTER": 275.8701, "MEAN_ANOMALY": 242.0304, "EPHEMERIS_TYPE": 0, "CLASSIFICATION_TYPE": "U", "NORAD_CAT_ID": 66511, "ELEMENT_SET_NO": 999, "REV_AT_EPOCH": 551, "BSTAR": 0.0011336522, "MEAN_MOTION_DOT": 0.00066563, "MEAN_MOTION_DDOT": 0}, "tle": {"line1": "1 66511U 25263AC  25346.00005787  .00066563  00000+0  11337-2 0  9996", "line2": "2 66511  43.0002 129.3718 0001351 275.8701 242.0304 15.50508056  5512"}}, "geometry": {"type": "Point", "coordinates": [102.90992023142182, -19.923360798416457]}}, {"type": "Feature", "properties": {"norad_id": 66512, "name": "STARLINK-35366", "group": "last-30-days", "lat": -17.48663969560675, "lon": 106.0303019364423, "alt_km": 415.95519163723566, "timestamp": "2025-12-12T14:39:16.771037+00:00", "meta": {"OBJECT_NAME": "STARLINK-35366", "OBJECT_ID": "2025-263AD", "EPOCH": "2025-12-12T00:00:04.999968", "MEAN_MOTION": 15.50513108, "ECCENTRICITY": 0.00015019, "INCLINATION": 43.0002, "RA_OF_ASC_NODE": 129.3623, "ARG_OF_PERICENTER": 287.3568, "MEAN_ANOMALY": 234.365, "EPHEMERIS_TYPE": 0, "CLASSIFICATION_TYPE": "U", "NORAD_CAT_ID": 66512, "ELEMENT_SET_NO": 999, "REV_AT_EPOCH": 551, "BSTAR": 0.0012291194, "MEAN_MOTION_DOT": 0.00072263, "MEAN_MOTION_DDOT": 0}, "tle": {"line1": "1 66512U 25263AD  25346.00005787  .00072263  00000+0  12291-2 0  9991", "line2": "2 66512  43.0002 129.3623 0001501 287.3568 234.3650 15.50513108  5516"}}, "geometry": {"type": "Point", "coordinates": [106.0303019364423, -17.48663969560675]}}, {"type": "Feature", "properties": {"norad_id": 66513, "name": "STARLINK-35692", "group": "last-30-days", "lat": -21.109521591230024, "lon": 101.32992547421085, "alt_km": 415.98741827171125, "timestamp": "2025-12-12T14:39:16.771046+00:00", "meta": {"OBJECT_NAME": "STARLINK-35692", "OBJECT_ID": "2025-263AE", "EPOCH": "2025-12-12T00:00:04.999968", "MEAN_MOTION": 15.5050845, "ECCENTRICITY": 0.00018296, "INCLINATION": 43.0002, "RA_OF_ASC_NODE": 129.3766, "ARG_OF_PERICENTER": 288.1081, "MEAN_ANOMALY": 227.8636, "EPHEMERIS_TYPE": 0, "CLASSIFICATION_TYPE": "U", "NORAD_CAT_ID": 66513, "ELEMENT_SET_NO": 999, "REV_AT_EPOCH": 551, "BSTAR": 0.001465874, "MEAN_MOTION_DOT": 0.00086392, "MEAN_MOTION_DDOT": 0}, "tle": {"line1": "1 66513U 25263AE  25346.00005787  .00086392  00000+0  14659-2 0  9990", "line2": "2 66513  43.0002 129.3766 0001829 288.1081 227.8636 15.50508450  5512"}}, "geometry": {"type": "Point", "coordinates": [101.32992547421085, -21.109521591230024]}}]}